[
  {
    "name": "Alexandrine Kilback Jr.",
    "line1": "596 Lowe Course",
    "line2": "",
    "city": "Nikolausmouth",
    "state": "Illinois",
    "zip": "65736",
    "phone": "(373) 568-3540"
  },
  {
    "name": "Jordan Wunsch",
    "line1": "1628 Pollich Flat",
    "line2": "",
    "city": "Darbyton",
    "state": "Indiana",
    "zip": "68310",
    "phone": "(686) 977-3139"
  },
  {
    "name": "Tremayne Gerhold",
    "line1": "1707 Jettie Turnpike",
    "line2": "",
    "city": "East Ludwigborough",
    "state": "Tennessee",
    "zip": "16619",
    "phone": "1-859-370-7593"
  },
  {
    "name": "Tyshawn Welch",
    "line1": "9550 Keyon Court",
    "line2": "",
    "city": "North Isaiasville",
    "state": "Idaho",
    "zip": "49636-4903",
    "phone": "1-288-569-4092"
  },
  {
    "name": "Diana Rohan",
    "line1": "2730 Sauer Lights",
    "line2": "",
    "city": "Pollichshire",
    "state": "Oklahoma",
    "zip": "28844-5822",
    "phone": "505-281-3816"
  },
  {
    "name": "Lawson Harvey",
    "line1": "87490 Armstrong Passage",
    "line2": "",
    "city": "West Laviniatown",
    "state": "Colorado",
    "zip": "56921-3722",
    "phone": "950-604-5538"
  },
  {
    "name": "Mr. Vernon Walter",
    "line1": "803 Hartmann Groves",
    "line2": "",
    "city": "Manleychester",
    "state": "Minnesota",
    "zip": "57004",
    "phone": "(428) 413-4563"
  },
  {
    "name": "Miss Sanford Lockman",
    "line1": "5440 Miguel Meadows",
    "line2": "",
    "city": "Port Montana",
    "state": "Illinois",
    "zip": "21832-2875",
    "phone": "1-269-685-0691"
  },
  {
    "name": "Mr. Brock Wisozk",
    "line1": "4545 Jennifer Meadow",
    "line2": "",
    "city": "West Gisselle",
    "state": "North Carolina",
    "zip": "27087-1019",
    "phone": "1-732-905-2495"
  },
  {
    "name": "Mrs. Marjory Weissnat",
    "line1": "23468 Rogahn Roads",
    "line2": "",
    "city": "Irvingchester",
    "state": "South Carolina",
    "zip": "55960",
    "phone": "(364) 417-6764"
  },
  {
    "name": "Gina Windler",
    "line1": "53827 Santa Islands",
    "line2": "Suite 340",
    "city": "Elliotville",
    "state": "Illinois",
    "zip": "18947-7142",
    "phone": "(469) 501-9079"
  },
  {
    "name": "Reynold Thiel",
    "line1": "967 Zella Forest",
    "line2": "",
    "city": "New Felicityburgh",
    "state": "Delaware",
    "zip": "17957-8361",
    "phone": "(558) 779-9392"
  },
  {
    "name": "Griffin Ebert",
    "line1": "841 Koelpin Mountain",
    "line2": "Apt. 828",
    "city": "East Velmaview",
    "state": "Nevada",
    "zip": "47367-8254",
    "phone": "1-819-719-9852"
  },
  {
    "name": "Mario Rippin",
    "line1": "4712 Thaddeus Motorway",
    "line2": "",
    "city": "Corwinchester",
    "state": "Mississippi",
    "zip": "22894-3135",
    "phone": "1-965-917-7911"
  },
  {
    "name": "Vaughn Wintheiser",
    "line1": "751 Romaine Ways",
    "line2": "Suite 830",
    "city": "North Wilburntown",
    "state": "New Hampshire",
    "zip": "56618-1747",
    "phone": "1-325-705-2566"
  },
  {
    "name": "Lane Mraz",
    "line1": "9055 Nienow Harbor",
    "line2": "",
    "city": "Port Ansley",
    "state": "Indiana",
    "zip": "49935-5955",
    "phone": "717-615-7964"
  },
  {
    "name": "Eldora Nolan",
    "line1": "62468 Vandervort Ports",
    "line2": "",
    "city": "South Jarvisshire",
    "state": "Indiana",
    "zip": "84201-2377",
    "phone": "(826) 008-1247"
  },
  {
    "name": "Jamison Braun II",
    "line1": "22089 Elva Center",
    "line2": "Apt. 699",
    "city": "Wilkinsonborough",
    "state": "Connecticut",
    "zip": "37687",
    "phone": "156.725.8104"
  },
  {
    "name": "Mrs. Ayla Stanton",
    "line1": "271 Boehm Village",
    "line2": "",
    "city": "Niamouth",
    "state": "Alabama",
    "zip": "30993-4815",
    "phone": "(971) 973-7641"
  },
  {
    "name": "Stephanie Hyatt V",
    "line1": "637 Nichole Keys",
    "line2": "Apt. 765",
    "city": "Lake Zoeyborough",
    "state": "New Hampshire",
    "zip": "92119-8252",
    "phone": "1-828-546-6322"
  },
  {
    "name": "Summer Deckow",
    "line1": "964 Schaefer Ports",
    "line2": "",
    "city": "Durganstad",
    "state": "Arkansas",
    "zip": "84159-5350",
    "phone": "(167) 807-0417"
  },
  {
    "name": "Carlee Windler IV",
    "line1": "921 Johns Ferry",
    "line2": "",
    "city": "East Crawford",
    "state": "Illinois",
    "zip": "52936-0307",
    "phone": "1-565-553-2061"
  },
  {
    "name": "Dr. Felipe Gusikowski",
    "line1": "5819 Esperanza Mall",
    "line2": "",
    "city": "New Gardner",
    "state": "New Hampshire",
    "zip": "85639-4476",
    "phone": "829-898-4639"
  },
  {
    "name": "Mrs. Carmel Miller",
    "line1": "8567 Howe Canyon",
    "line2": "Apt. 802",
    "city": "East Retta",
    "state": "North Carolina",
    "zip": "68578-0403",
    "phone": "101.621.7278"
  },
  {
    "name": "Easton Marvin",
    "line1": "424 Kaela Keys",
    "line2": "",
    "city": "Louisashire",
    "state": "Arizona",
    "zip": "89412",
    "phone": "388.240.6363"
  },
  {
    "name": "Miss Elwin Labadie",
    "line1": "603 Harold Brooks",
    "line2": "",
    "city": "West Fanny",
    "state": "Indiana",
    "zip": "48520-6392",
    "phone": "(268) 706-5615"
  },
  {
    "name": "Mr. Morgan Farrell",
    "line1": "91898 Herzog Divide",
    "line2": "",
    "city": "West Jocelyn",
    "state": "Mississippi",
    "zip": "67843",
    "phone": "1-223-241-0391"
  },
  {
    "name": "Khalil Kessler",
    "line1": "39112 Rippin Causeway",
    "line2": "",
    "city": "Dickiport",
    "state": "Kentucky",
    "zip": "49894-8349",
    "phone": "106.861.2234"
  },
  {
    "name": "Garett Thiel",
    "line1": "3674 Gibson Forks",
    "line2": "",
    "city": "West Otto",
    "state": "Arkansas",
    "zip": "18664",
    "phone": "634-519-8489"
  },
  {
    "name": "Dr. Raphaelle Ryan",
    "line1": "6274 Hand Stream",
    "line2": "",
    "city": "Gussieton",
    "state": "Arkansas",
    "zip": "23740-1964",
    "phone": "195.811.3748"
  },
  {
    "name": "Hattie Collier",
    "line1": "70591 Schulist Mountain",
    "line2": "",
    "city": "Kesslermouth",
    "state": "South Dakota",
    "zip": "13914",
    "phone": "281-997-6845"
  },
  {
    "name": "Virginie Okuneva",
    "line1": "7536 Watsica Lodge",
    "line2": "",
    "city": "West Bellmouth",
    "state": "Delaware",
    "zip": "86975",
    "phone": "1-415-255-3103"
  },
  {
    "name": "Paige Casper V",
    "line1": "564 Joe Wall",
    "line2": "",
    "city": "West Sonnybury",
    "state": "Florida",
    "zip": "31707-6820",
    "phone": "1-748-607-2739"
  },
  {
    "name": "Frederic Carter",
    "line1": "429 Lyla Springs",
    "line2": "Apt. 214",
    "city": "Port Wendy",
    "state": "South Carolina",
    "zip": "48627",
    "phone": "(753) 974-4030"
  },
  {
    "name": "Beaulah Keeling",
    "line1": "323 Dach Land",
    "line2": "",
    "city": "West Rudolphside",
    "state": "New Mexico",
    "zip": "98508-4150",
    "phone": "388-803-0081"
  },
  {
    "name": "Horacio Wyman",
    "line1": "591 Bill Drive",
    "line2": "",
    "city": "East Carrollland",
    "state": "New Jersey",
    "zip": "31511-6589",
    "phone": "557-460-4383"
  },
  {
    "name": "Taurean Marquardt",
    "line1": "87164 Adolph Grove",
    "line2": "",
    "city": "Elzafort",
    "state": "Connecticut",
    "zip": "85382-7047",
    "phone": "1-565-171-0037"
  },
  {
    "name": "Durward Casper",
    "line1": "99638 Howell Plaza",
    "line2": "",
    "city": "Estelfort",
    "state": "Vermont",
    "zip": "55078-0337",
    "phone": "553.015.0153"
  },
  {
    "name": "Savanna Walsh PhD",
    "line1": "950 Lowe Court",
    "line2": "",
    "city": "Port Jerroldland",
    "state": "Washington",
    "zip": "64226-8580",
    "phone": "(339) 156-8496"
  },
  {
    "name": "Everardo Nolan",
    "line1": "597 Eudora Spur",
    "line2": "",
    "city": "South Kenna",
    "state": "Florida",
    "zip": "81475",
    "phone": "562.221.2966"
  },
  {
    "name": "Evans Gerlach Jr.",
    "line1": "55897 McLaughlin Highway",
    "line2": "",
    "city": "Amelybury",
    "state": "Arkansas",
    "zip": "79814-7566",
    "phone": "1-113-363-2686"
  },
  {
    "name": "Jared Bechtelar",
    "line1": "13043 Wilkinson Parks",
    "line2": "Apt. 494",
    "city": "West Madie",
    "state": "Washington",
    "zip": "52787-9021",
    "phone": "1-633-763-5510"
  },
  {
    "name": "Ms. Kaela Beer",
    "line1": "98616 Marvin Fork",
    "line2": "",
    "city": "Gilbertoside",
    "state": "Pennsylvania",
    "zip": "43441-2151",
    "phone": "(532) 243-2872"
  },
  {
    "name": "Gunnar Cruickshank",
    "line1": "84025 Lang Courts",
    "line2": "",
    "city": "North Russellberg",
    "state": "Montana",
    "zip": "70844",
    "phone": "718.165.4437"
  },
  {
    "name": "Marcos Stehr",
    "line1": "63201 Thompson Keys",
    "line2": "",
    "city": "New Otiliabury",
    "state": "California",
    "zip": "29683",
    "phone": "710-061-1511"
  },
  {
    "name": "Efrain Konopelski",
    "line1": "660 Rosie Lock",
    "line2": "",
    "city": "Lake Abagail",
    "state": "Connecticut",
    "zip": "21417-7021",
    "phone": "(498) 313-4576"
  },
  {
    "name": "Dr. Jonatan Gerlach",
    "line1": "1610 Torp Trail",
    "line2": "Apt. 505",
    "city": "New Matilda",
    "state": "Louisiana",
    "zip": "69390",
    "phone": "828-274-5106"
  },
  {
    "name": "Mrs. Jena Collins",
    "line1": "9994 Heidenreich Drive",
    "line2": "",
    "city": "Trantowbury",
    "state": "South Dakota",
    "zip": "52121",
    "phone": "259.335.7922"
  },
  {
    "name": "Bryce Huels",
    "line1": "4833 Antonio Brooks",
    "line2": "",
    "city": "Lake Alia",
    "state": "Hawaii",
    "zip": "69776",
    "phone": "(720) 631-8462"
  },
  {
    "name": "Rae Feest",
    "line1": "545 Janae Turnpike",
    "line2": "",
    "city": "Vergieton",
    "state": "Hawaii",
    "zip": "71083-6467",
    "phone": "(700) 094-9095"
  },
  {
    "name": "Jeanie Williamson",
    "line1": "6306 Hauck Mount",
    "line2": "",
    "city": "West Tianaville",
    "state": "Wyoming",
    "zip": "71901-9402",
    "phone": "181.288.1360"
  },
  {
    "name": "Wilton Willms",
    "line1": "864 Lenore Trafficway",
    "line2": "",
    "city": "South Jeniferfort",
    "state": "Indiana",
    "zip": "75171",
    "phone": "1-668-475-2620"
  },
  {
    "name": "Johathan Lynch Jr.",
    "line1": "58067 Tod Flat",
    "line2": "",
    "city": "Nitzschebury",
    "state": "Oregon",
    "zip": "58291-0719",
    "phone": "(921) 798-8707"
  },
  {
    "name": "Blanche Fadel Sr.",
    "line1": "4964 Barton Station",
    "line2": "",
    "city": "Kuphalfort",
    "state": "California",
    "zip": "44605-8979",
    "phone": "870-269-9867"
  },
  {
    "name": "Penelope Connelly",
    "line1": "39194 Emmet Parks",
    "line2": "",
    "city": "East Aubreyport",
    "state": "Tennessee",
    "zip": "48764-3980",
    "phone": "195-152-7547"
  },
  {
    "name": "Camryn Kirlin DVM",
    "line1": "8019 Jazmyn Inlet",
    "line2": "Suite 926",
    "city": "East Bellebury",
    "state": "Nebraska",
    "zip": "44208",
    "phone": "472-458-2492"
  },
  {
    "name": "Dr. Jerry Bogisich",
    "line1": "5647 Kerluke Haven",
    "line2": "Apt. 374",
    "city": "McKenzieborough",
    "state": "Delaware",
    "zip": "60154",
    "phone": "115.133.8360"
  },
  {
    "name": "Vince McLaughlin",
    "line1": "2147 McLaughlin Lodge",
    "line2": "Apt. 254",
    "city": "New Doyle",
    "state": "Minnesota",
    "zip": "68973",
    "phone": "1-409-267-1066"
  },
  {
    "name": "Dayne McClure",
    "line1": "74215 Hand Tunnel",
    "line2": "",
    "city": "Lake Gonzaloborough",
    "state": "Alabama",
    "zip": "42468",
    "phone": "(783) 792-0533"
  },
  {
    "name": "Destiney Nikolaus",
    "line1": "3119 Marilou Valleys",
    "line2": "",
    "city": "South Coleman",
    "state": "Delaware",
    "zip": "46209",
    "phone": "1-296-816-5493"
  },
  {
    "name": "Kirk Terry PhD",
    "line1": "21903 Ezequiel Square",
    "line2": "",
    "city": "Port Christinaberg",
    "state": "Vermont",
    "zip": "10875-2267",
    "phone": "674.688.0057"
  },
  {
    "name": "Eleanora Crooks",
    "line1": "5667 Gottlieb Plaza",
    "line2": "",
    "city": "Kshlerinfort",
    "state": "Kansas",
    "zip": "58426-3267",
    "phone": "554.253.4523"
  },
  {
    "name": "Camron Barton",
    "line1": "35522 Minnie Union",
    "line2": "",
    "city": "Littleport",
    "state": "Washington",
    "zip": "41898",
    "phone": "899-225-2896"
  },
  {
    "name": "Mikayla Bartell Jr.",
    "line1": "13910 Ludie Wells",
    "line2": "",
    "city": "Jaleelburgh",
    "state": "Wyoming",
    "zip": "35400-3851",
    "phone": "261-250-9082"
  },
  {
    "name": "Fern Strosin MD",
    "line1": "4525 Joanie Springs",
    "line2": "",
    "city": "Beatricefurt",
    "state": "Florida",
    "zip": "22989",
    "phone": "1-188-301-8219"
  },
  {
    "name": "Kenneth Hegmann IV",
    "line1": "5859 Destiny Plain",
    "line2": "",
    "city": "Connbury",
    "state": "South Carolina",
    "zip": "23927-0868",
    "phone": "475.723.5468"
  },
  {
    "name": "Mrs. Magdalena Kirlin",
    "line1": "51623 Lakin Alley",
    "line2": "",
    "city": "North Carmel",
    "state": "Louisiana",
    "zip": "62676-4388",
    "phone": "551-379-3167"
  },
  {
    "name": "Mrs. Titus Lehner",
    "line1": "4372 Carmine Burgs",
    "line2": "",
    "city": "North Bianka",
    "state": "Kentucky",
    "zip": "34680",
    "phone": "453-258-7788"
  },
  {
    "name": "Ms. Sebastian Gibson",
    "line1": "75641 Kylee Ridge",
    "line2": "Apt. 845",
    "city": "Pfannerstillmouth",
    "state": "Texas",
    "zip": "98745",
    "phone": "(828) 125-9055"
  },
  {
    "name": "Dr. Dakota Farrell",
    "line1": "201 Natalia Spur",
    "line2": "",
    "city": "Lake Jakobburgh",
    "state": "Kentucky",
    "zip": "48961",
    "phone": "(376) 591-2954"
    }
  ]
